{
  "_updated_at": "2026-04-08T04:39:09Z",
  "_source": "Celestrak GP / GitHub Actions auto-update",
  "_update_interval": "daily at UTC 02:00",
  "_warnings": [],
  "satellites": [
    {
      "name": "SES-12",
      "catnr": 43488,
      "orbit": "GEO",
      "line0": "SES-12",
      "line1": "1 43488U 18049A   26097.94264708 -.00000267  00000+0  00000+0 0  9997",
      "line2": "2 43488   0.0385  42.1907 0001484 272.7253 315.6464  1.00271905 28715"
    },
    {
      "name": "SES-14",
      "catnr": 43175,
      "orbit": "GEO",
      "line0": "SES-14",
      "line1": "1 43175U 18012B   26097.87472052 -.00000276  00000+0  00000+0 0  9995",
      "line2": "2 43175   0.0140  94.0953 0001052 294.9367  74.5114  1.00270900  6327"
    },
    {
      "name": "SES-15",
      "catnr": 42709,
      "orbit": "GEO",
      "line0": "SES-15",
      "line1": "1 42709U 17026A   26097.64469403  .00000062  00000+0  00000+0 0  9994",
      "line2": "2 42709   0.0302 326.3146 0000757  62.6072 269.9238  1.00271903  6723"
    },
    {
      "name": "SES-17",
      "catnr": 49332,
      "orbit": "GEO",
      "line0": "SES-17",
      "line1": "1 49332U 21095A   26097.79958021 -.00000270  00000+0  00000+0 0  9991",
      "line2": "2 49332   0.0158  85.5154 0001166 300.9533  30.3438  1.00269429 17149"
    },
    {
      "name": "AMC-9",
      "catnr": 27820,
      "orbit": "GEO",
      "line0": "AMC-9 (GE-12)",
      "line1": "1 27820U 03024A   26097.77158675 -.00000275  00000+0  00000+0 0  9991",
      "line2": "2 27820   7.7449  66.5277 0018196 341.9428 217.3628  0.99035746 83295"
    },
    {
      "name": "NSS-12",
      "catnr": 36032,
      "orbit": "GEO",
      "line0": "NSS-12",
      "line1": "1 36032U 09058A   26097.95130300  .00000074  00000+0  00000+0 0  9990",
      "line2": "2 36032   0.0794  64.7317 0004950 298.5344 232.4214  1.00272650 60217"
    },
    {
      "name": "O3b mPOWER F1",
      "catnr": 54755,
      "orbit": "MEO",
      "line0": "O3B MPOWER F1",
      "line1": "1 54755U 22174A   26097.79758686 -.00000024  00000+0  00000+0 0  9997",
      "line2": "2 54755   0.0619 348.7833 0005675  46.3604 353.0219  5.00114968 61831"
    },
    {
      "name": "O3b mPOWER F2",
      "catnr": 54756,
      "orbit": "MEO",
      "line0": "O3B MPOWER F2",
      "line1": "1 54756U 22174B   26097.54871258 -.00000025  00000+0  00000+0 0  9993",
      "line2": "2 54756   0.0590 346.1019 0005953  29.3941 344.5215  5.00115527 61914"
    },
    {
      "name": "O3b mPOWER F3",
      "catnr": 56368,
      "orbit": "MEO",
      "line0": "O3B MPOWER F3",
      "line1": "1 56368U 23059B   26097.64634347 -.00000024  00000+0  00000+0 0  9993",
      "line2": "2 56368   0.0656   4.1852 0006602  16.3024 339.5382  5.00116720 51198"
    },
    {
      "name": "O3b mPOWER F4",
      "catnr": 56367,
      "orbit": "MEO",
      "line0": "O3B MPOWER F4",
      "line1": "1 56367U 23059A   26097.61304748 -.00000024  00000+0  00000+0 0  9998",
      "line2": "2 56367   0.0645   4.2526 0007073  26.5526 329.2355  5.00116132 55071"
    },
    {
      "name": "O3b mPOWER F5",
      "catnr": 58346,
      "orbit": "MEO",
      "line0": "O3B MPOWER F5",
      "line1": "1 58346U 23175A   26097.74703019 -.00000024  00000+0  00000+0 0  9994",
      "line2": "2 58346   0.0431   9.3620 0004303  17.9117 332.7482  5.00115730 45912"
    },
    {
      "name": "O3b mPOWER F6",
      "catnr": 58347,
      "orbit": "MEO",
      "line0": "O3B MPOWER F6",
      "line1": "1 58347U 23175B   26097.84772022 -.00000024  00000+0  00000+0 0  9996",
      "line2": "2 58347   0.0504   5.4353 0004844   1.1126 353.4577  5.00116406 44824"
    }
  ]
}